NORAD_CAT_ID,OBJECT_NAME,OBJECT_TYPE,EPOCH,MEAN_MOTION,ECCENTRICITY,INCLINATION,RA_OF_ASC_NODE,ARG_OF_PERICENTER,MEAN_ANOMALY,BSTAR,MEAN_MOTION_DOT,MEAN_MOTION_DDOT,TLE_LINE0,TLE_LINE1,TLE_LINE2,SEMIMAJOR_AXIS,PERIOD,APOGEE,PERIGEE,DECAYED
52309.0,STARLINK-3756,PAYLOAD,2023-03-19 19:54:06,15.08842367,0.0001254,53.2153,283.7393,76.8255,283.2877,0.00011483,1.54e-05,0.0,0 STARLINK-3756,1 52309U 22041BA  23078.82923697  .00001540  00000-0  11483-3 0  9994,2 52309  53.2153 283.7393 0001254  76.8255 283.2877 15.08842367 51939,6917.873,95.437,540.606,538.871,0.0
52309.0,STARLINK-3756,PAYLOAD,2023-03-20 07:01:48,15.08841738,0.0001499,53.2167,281.6565,76.0874,284.0285,5.695e-05,6.19e-06,0.0,0 STARLINK-3756,1 52309U 22041BA  23079.29291770  .00000619  00000-0  56950-4 0  9991,2 52309  53.2167 281.6565 0001499  76.0874 284.0285 15.08841738 52004,6917.875,95.437,540.777,538.703,0.0
52309.0,STARLINK-3756,PAYLOAD,2023-03-20 19:44:52,15.08844522,0.0001167,53.2151,279.2771,77.0069,283.1053,0.00011938,1.613e-05,0.0,0 STARLINK-3756,1 52309U 22041BA  23079.82283451  .00001613  00000-0  11938-3 0  9998,2 52309  53.2151 279.2771 0001167  77.0069 283.1053 15.08844522 52083,6917.867,95.437,540.539,538.924,0.0
52309.0,STARLINK-3756,PAYLOAD,2023-03-20 22:55:38,15.08849569,0.0001241,53.2154,278.6815,89.8163,270.2971,0.00018231,2.616e-05,0.0,0 STARLINK-3756,1 52309U 22041BA  23079.95531173  .00002616  00000-0  18231-3 0  9996,2 52309  53.2154 278.6815 0001241  89.8163 270.2971 15.08849569 52102,6917.851,95.437,540.575,538.858,0.0
52309.0,STARLINK-3756,PAYLOAD,2023-03-21 19:35:39,15.08846986,0.0001269,53.2145,274.8148,81.938,278.1756,8.1706e-05,1.013e-05,0.0,0 STARLINK-3756,1 52309U 22041BA  23080.81643149  .00001013  00000-0  81706-4 0  9998,2 52309  53.2145 274.8148 0001269  81.9380 278.1756 15.08846986 52235,6917.859,95.437,540.602,538.846,0.0
52309.0,STARLINK-3756,PAYLOAD,2023-03-22 19:26:26,15.0884085,0.0001085,53.2139,270.356,92.0377,268.0739,4.0437e-05,3.56e-06,0.0,0 STARLINK-3756,1 52309U 22041BA  23081.81003311  .00000356  00000-0  40437-4 0  9995,2 52309  53.2139 270.3560 0001085  92.0377 268.0739 15.08840850 52381,6917.878,95.438,540.493,538.992,0.0
52309.0,STARLINK-3756,PAYLOAD,2023-03-23 04:58:45,15.08841378,0.000101,53.2145,268.5724,88.7203,271.3905,2.652e-05,1.34e-06,0.0,0 STARLINK-3756,1 52309U 22041BA  23082.20747475  .00000134  00000-0  26520-4 0  9996,2 52309  53.2145 268.5724 0001010  88.7203 271.3905 15.08841378 52442,6917.876,95.437,540.44,539.042,0.0
52309.0,STARLINK-3756,PAYLOAD,2023-03-23 19:17:14,15.08839759,0.0001497,53.2154,265.8991,65.2059,294.9088,3.1879e-05,2.19e-06,0.0,0 STARLINK-3756,1 52309U 22041BA  23082.80364018  .00000219  00000-0  31879-4 0  9997,2 52309  53.2154 265.8991 0001497  65.2059 294.9088 15.08839759 52539,6917.881,95.438,540.782,538.711,0.0
52309.0,STARLINK-3756,PAYLOAD,2023-03-24 04:49:32,15.08854846,0.0001409,53.2168,264.1147,88.6818,271.4335,0.00024907,3.68e-05,0.0,0 STARLINK-3756,1 52309U 22041BA  23083.20106820  .00003680  00000-0  24907-3 0  9995,2 52309  53.2168 264.1147 0001409  88.6818 271.4335 15.08854846 52599,6917.835,95.437,540.675,538.725,0.0
52309.0,STARLINK-3756,PAYLOAD,2023-03-24 19:07:59,15.08880032,0.0001071,53.2142,261.4352,93.8123,266.2992,0.00090426,0.00014148,0.0,0 STARLINK-3756,1 52309U 22041BA  23083.79721793  .00014148  00000-0  90426-3 0  9991,2 52309  53.2142 261.4352 0001071  93.8123 266.2992 15.08880032 52688,6917.758,95.435,540.364,538.882,0.0
52309.0,STARLINK-3756,PAYLOAD,2023-03-25 04:40:19,15.08845368,0.0001377,53.2141,259.6523,99.7182,260.3966,-0.00010566,-1.969e-05,0.0,0 STARLINK-3756,1 52309U 22041BA  23084.19466618 -.00001969  00000-0 -10566-3 0  9994,2 52309  53.2141 259.6523 0001377  99.7182 260.3966 15.08845368 52741,6917.864,95.437,540.682,538.776,0.0
52309.0,STARLINK-3756,PAYLOAD,2023-03-25 18:58:49,15.08774617,0.0001093,53.2141,256.9754,114.4217,245.6889,0.0011316,0.00017735,0.0,0 STARLINK-3756,1 52309U 22041BA  23084.79085125  .00017735  00000-0  11316-2 0  9999,2 52309  53.2141 256.9754 0001093 114.4217 245.6889 15.08774617 52834,6918.08,95.442,540.701,539.189,0.0
52309.0,STARLINK-3756,PAYLOAD,2023-03-26 04:31:09,15.08805916,0.0001222,53.2138,255.1915,117.7476,242.364,0.0016544,0.00026115,0.0,0 STARLINK-3756,1 52309U 22041BA  23085.18830090  .00026115  00000-0  16544-2 0  9992,2 52309  53.2138 255.1915 0001222 117.7476 242.3640 15.08805916 52899,6917.985,95.44,540.695,539.004,0.0
52309.0,STARLINK-3756,PAYLOAD,2023-03-26 18:49:37,15.08860319,0.0001105,53.2144,252.5137,116.4805,243.6301,0.002439,0.00038764,0.0,0 STARLINK-3756,1 52309U 22041BA  23085.78446101  .00038764  00000-0  24390-2 0  9995,2 52309  53.2144 252.5137 0001105 116.4805 243.6301 15.08860319 52981,6917.818,95.436,540.448,538.919,0.0
52309.0,STARLINK-3756,PAYLOAD,2023-03-27 04:21:55,15.08867079,0.0001046,53.2155,250.7302,105.2554,254.8554,0.0017462,0.00027633,0.0,0 STARLINK-3756,1 52309U 22041BA  23086.18189701  .00027633  00000-0  17462-2 0  9995,2 52309  53.2155 250.7302 0001046 105.2554 254.8554 15.08867079 53040,6917.798,95.436,540.386,538.939,0.0
52309.0,STARLINK-3756,PAYLOAD,2023-03-27 10:43:28,15.08882258,0.0001383,53.2139,249.5407,99.2833,260.8316,0.0018984,0.00030089,0.0,0 STARLINK-3756,1 52309U 22041BA  23086.44685246  .00030089  00000-0  18984-2 0  9998,2 52309  53.2139 249.5407 0001383  99.2833 260.8316 15.08882258 53083,6917.751,95.435,540.573,538.66,0.0
52309.0,STARLINK-3756,PAYLOAD,2023-03-27 17:05:00,15.08878575,0.0001065,53.2141,248.3515,100.6739,259.4373,0.0011039,0.00017343,0.0,0 STARLINK-3756,1 52309U 22041BA  23086.71180596  .00017343  00000-0  11039-2 0  9998,2 52309  53.2141 248.3515 0001065 100.6739 259.4373 15.08878575 53121,6917.762,95.435,540.364,538.891,0.0
52309.0,STARLINK-3756,PAYLOAD,2023-03-28 04:12:41,15.08861754,0.0001741,53.2149,246.271,71.2654,288.8527,0.00035374,5.35e-05,0.0,0 STARLINK-3756,1 52309U 22041BA  23087.17548510  .00005350  00000-0  35374-3 0  9997,2 52309  53.2149 246.2710 0001741  71.2654 288.8527 15.08861754 53198,6917.814,95.436,540.883,538.475,0.0
52309.0,STARLINK-3756,PAYLOAD,2023-03-28 13:45:00,15.0885305,0.0001371,53.2153,244.4858,85.3678,274.747,0.0012186,0.00019166,0.0,0 STARLINK-3756,1 52309U 22041BA  23087.57292306  .00019166  00000-0  12186-2 0  9995,2 52309  53.2153 244.4858 0001371  85.3678 274.7470 15.08853050 53255,6917.841,95.437,540.654,538.757,0.0
52309.0,STARLINK-3756,PAYLOAD,2023-03-28 16:55:46,15.08851661,0.0001352,53.2154,243.8914,81.7915,278.323,0.0014575,0.00022992,0.0,0 STARLINK-3756,1 52309U 22041BA  23087.70540275  .00022992  00000-0  14575-2 0  9996,2 52309  53.2154 243.8914 0001352  81.7915 278.3230 15.08851661 53277,6917.845,95.437,540.645,538.774,0.0
52309.0,STARLINK-3756,PAYLOAD,2023-03-28 21:41:55,15.08865463,0.0001087,53.2148,242.9988,68.6344,291.4764,0.0022238,0.00035306,0.0,0 STARLINK-3756,1 52309U 22041BA  23087.90411983  .00035306  00000-0  22238-2 0  9999,2 52309  53.2148 242.9988 0001087  68.6344 291.4764 15.08865463 53303,6917.803,95.436,540.42,538.916,0.0
52309.0,STARLINK-3756,PAYLOAD,2023-03-29 16:46:33,15.0886331,9.54e-05,53.2146,239.4301,86.3475,273.7626,0.0021542,0.00034185,0.0,0 STARLINK-3756,1 52309U 22041BA  23088.69900020  .00034185  00000-0  21542-2 0  9992,2 52309  53.2146 239.4301 0000954  86.3475 273.7626 15.08863310 53427,6917.809,95.436,540.334,539.014,0.0
52309.0,STARLINK-3756,PAYLOAD,2023-03-30 10:15:48,15.08832921,0.0001282,53.2162,236.1595,60.6694,299.4426,0.00031147,4.672e-05,0.0,0 STARLINK-3756,1 52309U 22041BA  23089.42764430  .00004672  00000-0  31147-3 0  9998,2 52309  53.2162 236.1595 0001282  60.6694 299.4426 15.08832921 53536,6917.902,95.438,540.654,538.88,0.0
52309.0,STARLINK-3756,PAYLOAD,2023-03-30 16:37:20,15.08858367,0.0001067,53.2147,234.9692,86.6998,273.4116,0.002645,0.0004208,0.0,0 STARLINK-3756,1 52309U 22041BA  23089.69260307  .00042080  00000-0  26450-2 0  9996,2 52309  53.2147 234.9692 0001067  86.6998 273.4116 15.08858367 53573,6917.824,95.436,540.427,538.951,0.0
52309.0,STARLINK-3756,PAYLOAD,2023-03-31 02:09:39,15.08847157,0.0001116,53.2145,233.1861,167.0172,193.0849,-3.8553e-05,-9.01e-06,0.0,0 STARLINK-3756,1 52309U 22041BA  23090.09003664 -.00000901  00000-0 -38553-4 0  9990,2 52309  53.2145 233.1861 0001116 167.0172 193.0849 15.08847157 53635,6917.859,95.437,540.496,538.951,0.0
52309.0,STARLINK-3756,PAYLOAD,2023-03-31 14:52:44,15.08865592,0.0001089,53.2148,230.8052,117.1933,242.917,0.0026111,0.00041542,0.0,0 STARLINK-3756,1 52309U 22041BA  23090.61996022  .00041542  00000-0  26111-2 0  9996,2 52309  53.2148 230.8052 0001089 117.1933 242.9170 15.08865592 53717,6917.802,95.436,540.421,538.914,0.0
52309.0,STARLINK-3756,PAYLOAD,2023-04-01 02:00:26,15.08868334,9.49e-05,53.2143,228.7247,79.9934,280.1165,0.0020859,0.00033091,0.0,0 STARLINK-3756,1 52309U 22041BA  23091.08363880  .00033091  00000-0  20859-2 0  9991,2 52309  53.2143 228.7247 0000949  79.9934 280.1165 15.08868334 53786,6917.794,95.436,540.315,539.002,0.0
52309.0,STARLINK-3756,PAYLOAD,2023-04-01 13:08:09,15.08818941,8.51e-05,53.2145,226.6423,88.1527,271.9563,0.0012085,0.00018987,0.0,0 STARLINK-3756,1 52309U 22041BA  23091.54732761  .00018987  00000-0  12085-2 0  9999,2 52309  53.2145 226.6423 0000851  88.1527 271.9563 15.08818941 53850,6917.945,95.439,540.398,539.221,0.0
52309.0,STARLINK-3756,PAYLOAD,2023-04-01 17:54:18,15.08831337,9.91e-05,53.2141,225.7508,84.0145,276.096,0.0024909,0.00039568,0.0,0 STARLINK-3756,1 52309U 22041BA  23091.74605162  .00039568  00000-0  24909-2 0  9991,2 52309  53.2141 225.7508 0000991  84.0145 276.0960 15.08831337 53880,6917.907,95.438,540.457,539.086,0.0
52309.0,STARLINK-3756,PAYLOAD,2023-04-02 12:58:56,15.08856355,0.0001018,53.2137,222.1834,79.9993,280.1114,0.0015314,0.00024179,0.0,0 STARLINK-3756,1 52309U 22041BA  23092.54093262  .00024179  00000-0  15314-2 0  9994,2 52309  53.2137 222.1834 0001018  79.9993 280.1114 15.08856355 54002,6917.83,95.437,540.4,538.991,0.0
